PELICAN-6               
1 66703U 25276AP  26068.70709364  .00077979  00000+0  29726-2 0  9998
2 66703  97.4276 144.2072 0003569 157.8575 202.2819 15.26377980 15334
STARLINK-36441          
1 67469U 26008AA  26068.59174816  .00023438  00000+0  85882-3 0  9994
2 67469  42.9987 206.0758 0001634 278.6295  81.4372 15.27568643  9555
